{"type": "FeatureCollection", "hour": 14, "mock": false, "features": [{"type": "Feature", "properties": {"risk_level": 0, "rain_mm_3h": 0.0}, "geometry": {"type": "Polygon", "coordinates": [[[72.71, 18.86], [72.79, 18.86], [72.79, 18.939999999999998], [72.71, 18.939999999999998], [72.71, 18.86]]]}}, {"type": "Feature", "properties": {"risk_level": 0, "rain_mm_3h": 0.1}, "geometry": {"type": "Polygon", "coordinates": [[[72.785, 18.86], [72.86500000000001, 18.86], [72.86500000000001, 18.939999999999998], [72.785, 18.939999999999998], [72.785, 18.86]]]}}, {"type": "Feature", "properties": {"risk_level": 0, "rain_mm_3h": 0.1}, "geometry": {"type": "Polygon", "coordinates": [[[72.86, 18.86], [72.94000000000001, 18.86], [72.94000000000001, 18.939999999999998], [72.86, 18.939999999999998], [72.86, 18.86]]]}}, {"type": "Feature", "properties": {"risk_level": 0, "rain_mm_3h": 0.0}, "geometry": {"type": "Polygon", "coordinates": [[[72.93499999999999, 18.86], [73.015, 18.86], [73.015, 18.939999999999998], [72.93499999999999, 18.939999999999998], [72.93499999999999, 18.86]]]}}, {"type": "Feature", "properties": {"risk_level": 0, "rain_mm_3h": 0.0}, "geometry": {"type": "Polygon", "coordinates": [[[73.00999999999999, 18.86], [73.09, 18.86], [73.09, 18.939999999999998], [73.00999999999999, 18.939999999999998], [73.00999999999999, 18.86]]]}}, {"type": "Feature", "properties": {"risk_level": 0, "rain_mm_3h": 0.0}, "geometry": {"type": "Polygon", "coordinates": [[[72.71, 18.96], [72.79, 18.96], [72.79, 19.04], [72.71, 19.04], [72.71, 18.96]]]}}, {"type": "Feature", "properties": {"risk_level": 0, "rain_mm_3h": 0.0}, "geometry": {"type": "Polygon", "coordinates": [[[72.785, 18.96], [72.86500000000001, 18.96], [72.86500000000001, 19.04], [72.785, 19.04], [72.785, 18.96]]]}}, {"type": "Feature", "properties": {"risk_level": 0, "rain_mm_3h": 0.0}, "geometry": {"type": "Polygon", "coordinates": [[[72.86, 18.96], [72.94000000000001, 18.96], [72.94000000000001, 19.04], [72.86, 19.04], [72.86, 18.96]]]}}, {"type": "Feature", "properties": {"risk_level": 0, "rain_mm_3h": 0.1}, "geometry": {"type": "Polygon", "coordinates": [[[72.93499999999999, 18.96], [73.015, 18.96], [73.015, 19.04], [72.93499999999999, 19.04], [72.93499999999999, 18.96]]]}}, {"type": "Feature", "properties": {"risk_level": 0, "rain_mm_3h": 0.1}, "geometry": {"type": "Polygon", "coordinates": [[[73.00999999999999, 18.96], [73.09, 18.96], [73.09, 19.04], [73.00999999999999, 19.04], [73.00999999999999, 18.96]]]}}, {"type": "Feature", "properties": {"risk_level": 0, "rain_mm_3h": 0.0}, "geometry": {"type": "Polygon", "coordinates": [[[72.71, 19.060000000000002], [72.79, 19.060000000000002], [72.79, 19.14], [72.71, 19.14], [72.71, 19.060000000000002]]]}}, {"type": "Feature", "properties": {"risk_level": 0, "rain_mm_3h": 0.0}, "geometry": {"type": "Polygon", "coordinates": [[[72.785, 19.060000000000002], [72.86500000000001, 19.060000000000002], [72.86500000000001, 19.14], [72.785, 19.14], [72.785, 19.060000000000002]]]}}, {"type": "Feature", "properties": {"risk_level": 0, "rain_mm_3h": 0.0}, "geometry": {"type": "Polygon", "coordinates": [[[72.86, 19.060000000000002], [72.94000000000001, 19.060000000000002], [72.94000000000001, 19.14], [72.86, 19.14], [72.86, 19.060000000000002]]]}}, {"type": "Feature", "properties": {"risk_level": 0, "rain_mm_3h": 0.0}, "geometry": {"type": "Polygon", "coordinates": [[[72.93499999999999, 19.060000000000002], [73.015, 19.060000000000002], [73.015, 19.14], [72.93499999999999, 19.14], [72.93499999999999, 19.060000000000002]]]}}, {"type": "Feature", "properties": {"risk_level": 0, "rain_mm_3h": 0.1}, "geometry": {"type": "Polygon", "coordinates": [[[73.00999999999999, 19.060000000000002], [73.09, 19.060000000000002], [73.09, 19.14], [73.00999999999999, 19.14], [73.00999999999999, 19.060000000000002]]]}}, {"type": "Feature", "properties": {"risk_level": 0, "rain_mm_3h": 0.0}, "geometry": {"type": "Polygon", "coordinates": [[[72.71, 19.16], [72.79, 19.16], [72.79, 19.24], [72.71, 19.24], [72.71, 19.16]]]}}, {"type": "Feature", "properties": {"risk_level": 0, "rain_mm_3h": 0.0}, "geometry": {"type": "Polygon", "coordinates": [[[72.785, 19.16], [72.86500000000001, 19.16], [72.86500000000001, 19.24], [72.785, 19.24], [72.785, 19.16]]]}}, {"type": "Feature", "properties": {"risk_level": 0, "rain_mm_3h": 0.0}, "geometry": {"type": "Polygon", "coordinates": [[[72.86, 19.16], [72.94000000000001, 19.16], [72.94000000000001, 19.24], [72.86, 19.24], [72.86, 19.16]]]}}, {"type": "Feature", "properties": {"risk_level": 0, "rain_mm_3h": 0.1}, "geometry": {"type": "Polygon", "coordinates": [[[72.93499999999999, 19.16], [73.015, 19.16], [73.015, 19.24], [72.93499999999999, 19.24], [72.93499999999999, 19.16]]]}}, {"type": "Feature", "properties": {"risk_level": 0, "rain_mm_3h": 0.0}, "geometry": {"type": "Polygon", "coordinates": [[[73.00999999999999, 19.16], [73.09, 19.16], [73.09, 19.24], [73.00999999999999, 19.24], [73.00999999999999, 19.16]]]}}, {"type": "Feature", "properties": {"risk_level": 0, "rain_mm_3h": 0.0}, "geometry": {"type": "Polygon", "coordinates": [[[72.71, 19.26], [72.79, 19.26], [72.79, 19.34], [72.71, 19.34], [72.71, 19.26]]]}}, {"type": "Feature", "properties": {"risk_level": 0, "rain_mm_3h": 0.0}, "geometry": {"type": "Polygon", "coordinates": [[[72.785, 19.26], [72.86500000000001, 19.26], [72.86500000000001, 19.34], [72.785, 19.34], [72.785, 19.26]]]}}, {"type": "Feature", "properties": {"risk_level": 0, "rain_mm_3h": 0.0}, "geometry": {"type": "Polygon", "coordinates": [[[72.86, 19.26], [72.94000000000001, 19.26], [72.94000000000001, 19.34], [72.86, 19.34], [72.86, 19.26]]]}}, {"type": "Feature", "properties": {"risk_level": 0, "rain_mm_3h": 0.1}, "geometry": {"type": "Polygon", "coordinates": [[[72.93499999999999, 19.26], [73.015, 19.26], [73.015, 19.34], [72.93499999999999, 19.34], [72.93499999999999, 19.26]]]}}, {"type": "Feature", "properties": {"risk_level": 0, "rain_mm_3h": 0.0}, "geometry": {"type": "Polygon", "coordinates": [[[73.00999999999999, 19.26], [73.09, 19.26], [73.09, 19.34], [73.00999999999999, 19.34], [73.00999999999999, 19.26]]]}}]}