{"type": "FeatureCollection", "hour": 39, "mock": true, "features": [{"type": "Feature", "properties": {"depth_class": "medium"}, "geometry": {"type": "Polygon", "coordinates": [[[72.856, 19.106], [72.89399999999999, 19.106], [72.89399999999999, 19.144000000000002], [72.856, 19.144000000000002], [72.856, 19.106]]]}}, {"type": "Feature", "properties": {"depth_class": "medium"}, "geometry": {"type": "Polygon", "coordinates": [[[72.856, 19.156], [72.89399999999999, 19.156], [72.89399999999999, 19.194], [72.856, 19.194], [72.856, 19.156]]]}}, {"type": "Feature", "properties": {"depth_class": "medium"}, "geometry": {"type": "Polygon", "coordinates": [[[72.856, 19.206], [72.89399999999999, 19.206], [72.89399999999999, 19.244], [72.856, 19.244], [72.856, 19.206]]]}}]}