{"type": "FeatureCollection", "hour": 36, "mock": true, "features": [{"type": "Feature", "properties": {"depth_class": "medium"}, "geometry": {"type": "Polygon", "coordinates": [[[72.856, 19.056], [72.89399999999999, 19.056], [72.89399999999999, 19.094], [72.856, 19.094], [72.856, 19.056]]]}}, {"type": "Feature", "properties": {"depth_class": "medium"}, "geometry": {"type": "Polygon", "coordinates": [[[72.906, 19.056], [72.944, 19.056], [72.944, 19.094], [72.906, 19.094], [72.906, 19.056]]]}}, {"type": "Feature", "properties": {"depth_class": "medium"}, "geometry": {"type": "Polygon", "coordinates": [[[72.956, 19.056], [72.994, 19.056], [72.994, 19.094], [72.956, 19.094], [72.956, 19.056]]]}}, {"type": "Feature", "properties": {"depth_class": "medium"}, "geometry": {"type": "Polygon", "coordinates": [[[72.856, 19.106], [72.89399999999999, 19.106], [72.89399999999999, 19.144000000000002], [72.856, 19.144000000000002], [72.856, 19.106]]]}}, {"type": "Feature", "properties": {"depth_class": "medium"}, "geometry": {"type": "Polygon", "coordinates": [[[72.906, 19.106], [72.944, 19.106], [72.944, 19.144000000000002], [72.906, 19.144000000000002], [72.906, 19.106]]]}}, {"type": "Feature", "properties": {"depth_class": "medium"}, "geometry": {"type": "Polygon", "coordinates": [[[72.956, 19.106], [72.994, 19.106], [72.994, 19.144000000000002], [72.956, 19.144000000000002], [72.956, 19.106]]]}}, {"type": "Feature", "properties": {"depth_class": "medium"}, "geometry": {"type": "Polygon", "coordinates": [[[73.006, 19.106], [73.044, 19.106], [73.044, 19.144000000000002], [73.006, 19.144000000000002], [73.006, 19.106]]]}}, {"type": "Feature", "properties": {"depth_class": "medium"}, "geometry": {"type": "Polygon", "coordinates": [[[72.856, 19.156], [72.89399999999999, 19.156], [72.89399999999999, 19.194], [72.856, 19.194], [72.856, 19.156]]]}}, {"type": "Feature", "properties": {"depth_class": "medium"}, "geometry": {"type": "Polygon", "coordinates": [[[72.906, 19.156], [72.944, 19.156], [72.944, 19.194], [72.906, 19.194], [72.906, 19.156]]]}}, {"type": "Feature", "properties": {"depth_class": "medium"}, "geometry": {"type": "Polygon", "coordinates": [[[72.956, 19.156], [72.994, 19.156], [72.994, 19.194], [72.956, 19.194], [72.956, 19.156]]]}}]}