{"type": "FeatureCollection", "hour": 30, "mock": true, "features": [{"type": "Feature", "properties": {"depth_class": "medium"}, "geometry": {"type": "Polygon", "coordinates": [[[72.856, 18.956], [72.89399999999999, 18.956], [72.89399999999999, 18.994], [72.856, 18.994], [72.856, 18.956]]]}}, {"type": "Feature", "properties": {"depth_class": "medium"}, "geometry": {"type": "Polygon", "coordinates": [[[72.856, 19.006], [72.89399999999999, 19.006], [72.89399999999999, 19.044], [72.856, 19.044], [72.856, 19.006]]]}}, {"type": "Feature", "properties": {"depth_class": "medium"}, "geometry": {"type": "Polygon", "coordinates": [[[72.906, 19.006], [72.944, 19.006], [72.944, 19.044], [72.906, 19.044], [72.906, 19.006]]]}}, {"type": "Feature", "properties": {"depth_class": "medium"}, "geometry": {"type": "Polygon", "coordinates": [[[72.956, 19.006], [72.994, 19.006], [72.994, 19.044], [72.956, 19.044], [72.956, 19.006]]]}}, {"type": "Feature", "properties": {"depth_class": "medium"}, "geometry": {"type": "Polygon", "coordinates": [[[72.806, 19.056], [72.844, 19.056], [72.844, 19.094], [72.806, 19.094], [72.806, 19.056]]]}}, {"type": "Feature", "properties": {"depth_class": "high"}, "geometry": {"type": "Polygon", "coordinates": [[[72.856, 19.056], [72.89399999999999, 19.056], [72.89399999999999, 19.094], [72.856, 19.094], [72.856, 19.056]]]}}, {"type": "Feature", "properties": {"depth_class": "medium"}, "geometry": {"type": "Polygon", "coordinates": [[[72.906, 19.056], [72.944, 19.056], [72.944, 19.094], [72.906, 19.094], [72.906, 19.056]]]}}, {"type": "Feature", "properties": {"depth_class": "medium"}, "geometry": {"type": "Polygon", "coordinates": [[[72.956, 19.056], [72.994, 19.056], [72.994, 19.094], [72.956, 19.094], [72.956, 19.056]]]}}, {"type": "Feature", "properties": {"depth_class": "medium"}, "geometry": {"type": "Polygon", "coordinates": [[[73.006, 19.056], [73.044, 19.056], [73.044, 19.094], [73.006, 19.094], [73.006, 19.056]]]}}, {"type": "Feature", "properties": {"depth_class": "medium"}, "geometry": {"type": "Polygon", "coordinates": [[[72.806, 19.106], [72.844, 19.106], [72.844, 19.144000000000002], [72.806, 19.144000000000002], [72.806, 19.106]]]}}, {"type": "Feature", "properties": {"depth_class": "high"}, "geometry": {"type": "Polygon", "coordinates": [[[72.856, 19.106], [72.89399999999999, 19.106], [72.89399999999999, 19.144000000000002], [72.856, 19.144000000000002], [72.856, 19.106]]]}}, {"type": "Feature", "properties": {"depth_class": "medium"}, "geometry": {"type": "Polygon", "coordinates": [[[72.906, 19.106], [72.944, 19.106], [72.944, 19.144000000000002], [72.906, 19.144000000000002], [72.906, 19.106]]]}}, {"type": "Feature", "properties": {"depth_class": "medium"}, "geometry": {"type": "Polygon", "coordinates": [[[72.956, 19.106], [72.994, 19.106], [72.994, 19.144000000000002], [72.956, 19.144000000000002], [72.956, 19.106]]]}}, {"type": "Feature", "properties": {"depth_class": "medium"}, "geometry": {"type": "Polygon", "coordinates": [[[73.006, 19.106], [73.044, 19.106], [73.044, 19.144000000000002], [73.006, 19.144000000000002], [73.006, 19.106]]]}}, {"type": "Feature", "properties": {"depth_class": "medium"}, "geometry": {"type": "Polygon", "coordinates": [[[72.806, 19.156], [72.844, 19.156], [72.844, 19.194], [72.806, 19.194], [72.806, 19.156]]]}}, {"type": "Feature", "properties": {"depth_class": "high"}, "geometry": {"type": "Polygon", "coordinates": [[[72.856, 19.156], [72.89399999999999, 19.156], [72.89399999999999, 19.194], [72.856, 19.194], [72.856, 19.156]]]}}, {"type": "Feature", "properties": {"depth_class": "medium"}, "geometry": {"type": "Polygon", "coordinates": [[[72.906, 19.156], [72.944, 19.156], [72.944, 19.194], [72.906, 19.194], [72.906, 19.156]]]}}, {"type": "Feature", "properties": {"depth_class": "medium"}, "geometry": {"type": "Polygon", "coordinates": [[[72.956, 19.156], [72.994, 19.156], [72.994, 19.194], [72.956, 19.194], [72.956, 19.156]]]}}, {"type": "Feature", "properties": {"depth_class": "medium"}, "geometry": {"type": "Polygon", "coordinates": [[[73.006, 19.156], [73.044, 19.156], [73.044, 19.194], [73.006, 19.194], [73.006, 19.156]]]}}, {"type": "Feature", "properties": {"depth_class": "medium"}, "geometry": {"type": "Polygon", "coordinates": [[[72.856, 19.206], [72.89399999999999, 19.206], [72.89399999999999, 19.244], [72.856, 19.244], [72.856, 19.206]]]}}, {"type": "Feature", "properties": {"depth_class": "medium"}, "geometry": {"type": "Polygon", "coordinates": [[[72.906, 19.206], [72.944, 19.206], [72.944, 19.244], [72.906, 19.244], [72.906, 19.206]]]}}, {"type": "Feature", "properties": {"depth_class": "medium"}, "geometry": {"type": "Polygon", "coordinates": [[[72.956, 19.206], [72.994, 19.206], [72.994, 19.244], [72.956, 19.244], [72.956, 19.206]]]}}, {"type": "Feature", "properties": {"depth_class": "medium"}, "geometry": {"type": "Polygon", "coordinates": [[[72.856, 19.256], [72.89399999999999, 19.256], [72.89399999999999, 19.294], [72.856, 19.294], [72.856, 19.256]]]}}]}