{"type": "FeatureCollection", "hour": 22, "mock": true, "features": [{"type": "Feature", "properties": {"depth_class": "medium"}, "geometry": {"type": "Polygon", "coordinates": [[[72.856, 19.006], [72.89399999999999, 19.006], [72.89399999999999, 19.044], [72.856, 19.044], [72.856, 19.006]]]}}, {"type": "Feature", "properties": {"depth_class": "medium"}, "geometry": {"type": "Polygon", "coordinates": [[[72.856, 19.056], [72.89399999999999, 19.056], [72.89399999999999, 19.094], [72.856, 19.094], [72.856, 19.056]]]}}, {"type": "Feature", "properties": {"depth_class": "medium"}, "geometry": {"type": "Polygon", "coordinates": [[[72.856, 19.106], [72.89399999999999, 19.106], [72.89399999999999, 19.144000000000002], [72.856, 19.144000000000002], [72.856, 19.106]]]}}, {"type": "Feature", "properties": {"depth_class": "medium"}, "geometry": {"type": "Polygon", "coordinates": [[[72.856, 19.156], [72.89399999999999, 19.156], [72.89399999999999, 19.194], [72.856, 19.194], [72.856, 19.156]]]}}]}