{"type": "FeatureCollection", "hour": 23, "mock": true, "features": [{"type": "Feature", "properties": {"risk_level": 0, "rain_mm_3h": 1.4}, "geometry": {"type": "Polygon", "coordinates": [[[72.75, 18.9], [72.8, 18.9], [72.8, 18.95], [72.75, 18.95], [72.75, 18.9]]]}}, {"type": "Feature", "properties": {"risk_level": 0, "rain_mm_3h": 5.3}, "geometry": {"type": "Polygon", "coordinates": [[[72.8, 18.9], [72.85, 18.9], [72.85, 18.95], [72.8, 18.95], [72.8, 18.9]]]}}, {"type": "Feature", "properties": {"risk_level": 0, "rain_mm_3h": 9.7}, "geometry": {"type": "Polygon", "coordinates": [[[72.85, 18.9], [72.89999999999999, 18.9], [72.89999999999999, 18.95], [72.85, 18.95], [72.85, 18.9]]]}}, {"type": "Feature", "properties": {"risk_level": 0, "rain_mm_3h": 8.9}, "geometry": {"type": "Polygon", "coordinates": [[[72.9, 18.9], [72.95, 18.9], [72.95, 18.95], [72.9, 18.95], [72.9, 18.9]]]}}, {"type": "Feature", "properties": {"risk_level": 0, "rain_mm_3h": 4.1}, "geometry": {"type": "Polygon", "coordinates": [[[72.95, 18.9], [73.0, 18.9], [73.0, 18.95], [72.95, 18.95], [72.95, 18.9]]]}}, {"type": "Feature", "properties": {"risk_level": 0, "rain_mm_3h": 0.9}, "geometry": {"type": "Polygon", "coordinates": [[[73.0, 18.9], [73.05, 18.9], [73.05, 18.95], [73.0, 18.95], [73.0, 18.9]]]}}, {"type": "Feature", "properties": {"risk_level": 0, "rain_mm_3h": 3.3}, "geometry": {"type": "Polygon", "coordinates": [[[72.75, 18.95], [72.8, 18.95], [72.8, 19.0], [72.75, 19.0], [72.75, 18.95]]]}}, {"type": "Feature", "properties": {"risk_level": 1, "rain_mm_3h": 12.2}, "geometry": {"type": "Polygon", "coordinates": [[[72.8, 18.95], [72.85, 18.95], [72.85, 19.0], [72.8, 19.0], [72.8, 18.95]]]}}, {"type": "Feature", "properties": {"risk_level": 1, "rain_mm_3h": 22.3}, "geometry": {"type": "Polygon", "coordinates": [[[72.85, 18.95], [72.89999999999999, 18.95], [72.89999999999999, 19.0], [72.85, 19.0], [72.85, 18.95]]]}}, {"type": "Feature", "properties": {"risk_level": 1, "rain_mm_3h": 20.5}, "geometry": {"type": "Polygon", "coordinates": [[[72.9, 18.95], [72.95, 18.95], [72.95, 19.0], [72.9, 19.0], [72.9, 18.95]]]}}, {"type": "Feature", "properties": {"risk_level": 0, "rain_mm_3h": 9.4}, "geometry": {"type": "Polygon", "coordinates": [[[72.95, 18.95], [73.0, 18.95], [73.0, 19.0], [72.95, 19.0], [72.95, 18.95]]]}}, {"type": "Feature", "properties": {"risk_level": 0, "rain_mm_3h": 2.2}, "geometry": {"type": "Polygon", "coordinates": [[[73.0, 18.95], [73.05, 18.95], [73.05, 19.0], [73.0, 19.0], [73.0, 18.95]]]}}, {"type": "Feature", "properties": {"risk_level": 0, "rain_mm_3h": 5.7}, "geometry": {"type": "Polygon", "coordinates": [[[72.75, 19.0], [72.8, 19.0], [72.8, 19.05], [72.75, 19.05], [72.75, 19.0]]]}}, {"type": "Feature", "properties": {"risk_level": 1, "rain_mm_3h": 20.8}, "geometry": {"type": "Polygon", "coordinates": [[[72.8, 19.0], [72.85, 19.0], [72.85, 19.05], [72.8, 19.05], [72.8, 19.0]]]}}, {"type": "Feature", "properties": {"risk_level": 2, "rain_mm_3h": 38.2}, "geometry": {"type": "Polygon", "coordinates": [[[72.85, 19.0], [72.89999999999999, 19.0], [72.89999999999999, 19.05], [72.85, 19.05], [72.85, 19.0]]]}}, {"type": "Feature", "properties": {"risk_level": 2, "rain_mm_3h": 35.1}, "geometry": {"type": "Polygon", "coordinates": [[[72.9, 19.0], [72.95, 19.0], [72.95, 19.05], [72.9, 19.05], [72.9, 19.0]]]}}, {"type": "Feature", "properties": {"risk_level": 1, "rain_mm_3h": 16.2}, "geometry": {"type": "Polygon", "coordinates": [[[72.95, 19.0], [73.0, 19.0], [73.0, 19.05], [72.95, 19.05], [72.95, 19.0]]]}}, {"type": "Feature", "properties": {"risk_level": 0, "rain_mm_3h": 3.7}, "geometry": {"type": "Polygon", "coordinates": [[[73.0, 19.0], [73.05, 19.0], [73.05, 19.05], [73.0, 19.05], [73.0, 19.0]]]}}, {"type": "Feature", "properties": {"risk_level": 0, "rain_mm_3h": 7.2}, "geometry": {"type": "Polygon", "coordinates": [[[72.75, 19.05], [72.8, 19.05], [72.8, 19.1], [72.75, 19.1], [72.75, 19.05]]]}}, {"type": "Feature", "properties": {"risk_level": 2, "rain_mm_3h": 26.5}, "geometry": {"type": "Polygon", "coordinates": [[[72.8, 19.05], [72.85, 19.05], [72.85, 19.1], [72.8, 19.1], [72.8, 19.05]]]}}, {"type": "Feature", "properties": {"risk_level": 2, "rain_mm_3h": 48.6}, "geometry": {"type": "Polygon", "coordinates": [[[72.85, 19.05], [72.89999999999999, 19.05], [72.89999999999999, 19.1], [72.85, 19.1], [72.85, 19.05]]]}}, {"type": "Feature", "properties": {"risk_level": 2, "rain_mm_3h": 44.7}, "geometry": {"type": "Polygon", "coordinates": [[[72.9, 19.05], [72.95, 19.05], [72.95, 19.1], [72.9, 19.1], [72.9, 19.05]]]}}, {"type": "Feature", "properties": {"risk_level": 1, "rain_mm_3h": 20.6}, "geometry": {"type": "Polygon", "coordinates": [[[72.95, 19.05], [73.0, 19.05], [73.0, 19.1], [72.95, 19.1], [72.95, 19.05]]]}}, {"type": "Feature", "properties": {"risk_level": 0, "rain_mm_3h": 4.7}, "geometry": {"type": "Polygon", "coordinates": [[[73.0, 19.05], [73.05, 19.05], [73.05, 19.1], [73.0, 19.1], [73.0, 19.05]]]}}, {"type": "Feature", "properties": {"risk_level": 0, "rain_mm_3h": 6.8}, "geometry": {"type": "Polygon", "coordinates": [[[72.75, 19.1], [72.8, 19.1], [72.8, 19.150000000000002], [72.75, 19.150000000000002], [72.75, 19.1]]]}}, {"type": "Feature", "properties": {"risk_level": 2, "rain_mm_3h": 25.1}, "geometry": {"type": "Polygon", "coordinates": [[[72.8, 19.1], [72.85, 19.1], [72.85, 19.150000000000002], [72.8, 19.150000000000002], [72.8, 19.1]]]}}, {"type": "Feature", "properties": {"risk_level": 2, "rain_mm_3h": 46.1}, "geometry": {"type": "Polygon", "coordinates": [[[72.85, 19.1], [72.89999999999999, 19.1], [72.89999999999999, 19.150000000000002], [72.85, 19.150000000000002], [72.85, 19.1]]]}}, {"type": "Feature", "properties": {"risk_level": 2, "rain_mm_3h": 42.4}, "geometry": {"type": "Polygon", "coordinates": [[[72.9, 19.1], [72.95, 19.1], [72.95, 19.150000000000002], [72.9, 19.150000000000002], [72.9, 19.1]]]}}, {"type": "Feature", "properties": {"risk_level": 1, "rain_mm_3h": 19.5}, "geometry": {"type": "Polygon", "coordinates": [[[72.95, 19.1], [73.0, 19.1], [73.0, 19.150000000000002], [72.95, 19.150000000000002], [72.95, 19.1]]]}}, {"type": "Feature", "properties": {"risk_level": 0, "rain_mm_3h": 4.5}, "geometry": {"type": "Polygon", "coordinates": [[[73.0, 19.1], [73.05, 19.1], [73.05, 19.150000000000002], [73.0, 19.150000000000002], [73.0, 19.1]]]}}, {"type": "Feature", "properties": {"risk_level": 0, "rain_mm_3h": 4.8}, "geometry": {"type": "Polygon", "coordinates": [[[72.75, 19.15], [72.8, 19.15], [72.8, 19.2], [72.75, 19.2], [72.75, 19.15]]]}}, {"type": "Feature", "properties": {"risk_level": 1, "rain_mm_3h": 17.7}, "geometry": {"type": "Polygon", "coordinates": [[[72.8, 19.15], [72.85, 19.15], [72.85, 19.2], [72.8, 19.2], [72.8, 19.15]]]}}, {"type": "Feature", "properties": {"risk_level": 2, "rain_mm_3h": 32.5}, "geometry": {"type": "Polygon", "coordinates": [[[72.85, 19.15], [72.89999999999999, 19.15], [72.89999999999999, 19.2], [72.85, 19.2], [72.85, 19.15]]]}}, {"type": "Feature", "properties": {"risk_level": 2, "rain_mm_3h": 29.8}, "geometry": {"type": "Polygon", "coordinates": [[[72.9, 19.15], [72.95, 19.15], [72.95, 19.2], [72.9, 19.2], [72.9, 19.15]]]}}, {"type": "Feature", "properties": {"risk_level": 1, "rain_mm_3h": 13.7}, "geometry": {"type": "Polygon", "coordinates": [[[72.95, 19.15], [73.0, 19.15], [73.0, 19.2], [72.95, 19.2], [72.95, 19.15]]]}}, {"type": "Feature", "properties": {"risk_level": 0, "rain_mm_3h": 3.2}, "geometry": {"type": "Polygon", "coordinates": [[[73.0, 19.15], [73.05, 19.15], [73.05, 19.2], [73.0, 19.2], [73.0, 19.15]]]}}, {"type": "Feature", "properties": {"risk_level": 0, "rain_mm_3h": 2.5}, "geometry": {"type": "Polygon", "coordinates": [[[72.75, 19.2], [72.8, 19.2], [72.8, 19.25], [72.75, 19.25], [72.75, 19.2]]]}}, {"type": "Feature", "properties": {"risk_level": 0, "rain_mm_3h": 9.3}, "geometry": {"type": "Polygon", "coordinates": [[[72.8, 19.2], [72.85, 19.2], [72.85, 19.25], [72.8, 19.25], [72.8, 19.2]]]}}, {"type": "Feature", "properties": {"risk_level": 1, "rain_mm_3h": 17.0}, "geometry": {"type": "Polygon", "coordinates": [[[72.85, 19.2], [72.89999999999999, 19.2], [72.89999999999999, 19.25], [72.85, 19.25], [72.85, 19.2]]]}}, {"type": "Feature", "properties": {"risk_level": 1, "rain_mm_3h": 15.6}, "geometry": {"type": "Polygon", "coordinates": [[[72.9, 19.2], [72.95, 19.2], [72.95, 19.25], [72.9, 19.25], [72.9, 19.2]]]}}, {"type": "Feature", "properties": {"risk_level": 0, "rain_mm_3h": 7.2}, "geometry": {"type": "Polygon", "coordinates": [[[72.95, 19.2], [73.0, 19.2], [73.0, 19.25], [72.95, 19.25], [72.95, 19.2]]]}}, {"type": "Feature", "properties": {"risk_level": 0, "rain_mm_3h": 1.7}, "geometry": {"type": "Polygon", "coordinates": [[[73.0, 19.2], [73.05, 19.2], [73.05, 19.25], [73.0, 19.25], [73.0, 19.2]]]}}, {"type": "Feature", "properties": {"risk_level": 0, "rain_mm_3h": 1.0}, "geometry": {"type": "Polygon", "coordinates": [[[72.75, 19.25], [72.8, 19.25], [72.8, 19.3], [72.75, 19.3], [72.75, 19.25]]]}}, {"type": "Feature", "properties": {"risk_level": 0, "rain_mm_3h": 3.6}, "geometry": {"type": "Polygon", "coordinates": [[[72.8, 19.25], [72.85, 19.25], [72.85, 19.3], [72.8, 19.3], [72.8, 19.25]]]}}, {"type": "Feature", "properties": {"risk_level": 0, "rain_mm_3h": 6.6}, "geometry": {"type": "Polygon", "coordinates": [[[72.85, 19.25], [72.89999999999999, 19.25], [72.89999999999999, 19.3], [72.85, 19.3], [72.85, 19.25]]]}}, {"type": "Feature", "properties": {"risk_level": 0, "rain_mm_3h": 6.1}, "geometry": {"type": "Polygon", "coordinates": [[[72.9, 19.25], [72.95, 19.25], [72.95, 19.3], [72.9, 19.3], [72.9, 19.25]]]}}, {"type": "Feature", "properties": {"risk_level": 0, "rain_mm_3h": 2.8}, "geometry": {"type": "Polygon", "coordinates": [[[72.95, 19.25], [73.0, 19.25], [73.0, 19.3], [72.95, 19.3], [72.95, 19.25]]]}}, {"type": "Feature", "properties": {"risk_level": 0, "rain_mm_3h": 0.6}, "geometry": {"type": "Polygon", "coordinates": [[[73.0, 19.25], [73.05, 19.25], [73.05, 19.3], [73.0, 19.3], [73.0, 19.25]]]}}]}