{"type": "FeatureCollection", "hour": 25, "mock": true, "features": [{"type": "Feature", "properties": {"risk_level": 0, "rain_mm_3h": 3.9}, "geometry": {"type": "Polygon", "coordinates": [[[72.75, 18.9], [72.8, 18.9], [72.8, 18.95], [72.75, 18.95], [72.75, 18.9]]]}}, {"type": "Feature", "properties": {"risk_level": 0, "rain_mm_3h": 9.7}, "geometry": {"type": "Polygon", "coordinates": [[[72.8, 18.9], [72.85, 18.9], [72.85, 18.95], [72.8, 18.95], [72.8, 18.9]]]}}, {"type": "Feature", "properties": {"risk_level": 1, "rain_mm_3h": 16.7}, "geometry": {"type": "Polygon", "coordinates": [[[72.85, 18.9], [72.89999999999999, 18.9], [72.89999999999999, 18.95], [72.85, 18.95], [72.85, 18.9]]]}}, {"type": "Feature", "properties": {"risk_level": 1, "rain_mm_3h": 20.4}, "geometry": {"type": "Polygon", "coordinates": [[[72.9, 18.9], [72.95, 18.9], [72.95, 18.95], [72.9, 18.95], [72.9, 18.9]]]}}, {"type": "Feature", "properties": {"risk_level": 1, "rain_mm_3h": 17.6}, "geometry": {"type": "Polygon", "coordinates": [[[72.95, 18.9], [73.0, 18.9], [73.0, 18.95], [72.95, 18.95], [72.95, 18.9]]]}}, {"type": "Feature", "properties": {"risk_level": 1, "rain_mm_3h": 10.7}, "geometry": {"type": "Polygon", "coordinates": [[[73.0, 18.9], [73.05, 18.9], [73.05, 18.95], [73.0, 18.95], [73.0, 18.9]]]}}, {"type": "Feature", "properties": {"risk_level": 0, "rain_mm_3h": 6.8}, "geometry": {"type": "Polygon", "coordinates": [[[72.75, 18.95], [72.8, 18.95], [72.8, 19.0], [72.75, 19.0], [72.75, 18.95]]]}}, {"type": "Feature", "properties": {"risk_level": 1, "rain_mm_3h": 16.6}, "geometry": {"type": "Polygon", "coordinates": [[[72.8, 18.95], [72.85, 18.95], [72.85, 19.0], [72.8, 19.0], [72.8, 18.95]]]}}, {"type": "Feature", "properties": {"risk_level": 2, "rain_mm_3h": 28.6}, "geometry": {"type": "Polygon", "coordinates": [[[72.85, 18.95], [72.89999999999999, 18.95], [72.89999999999999, 19.0], [72.85, 19.0], [72.85, 18.95]]]}}, {"type": "Feature", "properties": {"risk_level": 2, "rain_mm_3h": 35.0}, "geometry": {"type": "Polygon", "coordinates": [[[72.9, 18.95], [72.95, 18.95], [72.95, 19.0], [72.9, 19.0], [72.9, 18.95]]]}}, {"type": "Feature", "properties": {"risk_level": 2, "rain_mm_3h": 30.2}, "geometry": {"type": "Polygon", "coordinates": [[[72.95, 18.95], [73.0, 18.95], [73.0, 19.0], [72.95, 19.0], [72.95, 18.95]]]}}, {"type": "Feature", "properties": {"risk_level": 1, "rain_mm_3h": 18.4}, "geometry": {"type": "Polygon", "coordinates": [[[73.0, 18.95], [73.05, 18.95], [73.05, 19.0], [73.0, 19.0], [73.0, 18.95]]]}}, {"type": "Feature", "properties": {"risk_level": 1, "rain_mm_3h": 10.0}, "geometry": {"type": "Polygon", "coordinates": [[[72.75, 19.0], [72.8, 19.0], [72.8, 19.05], [72.75, 19.05], [72.75, 19.0]]]}}, {"type": "Feature", "properties": {"risk_level": 1, "rain_mm_3h": 24.4}, "geometry": {"type": "Polygon", "coordinates": [[[72.8, 19.0], [72.85, 19.0], [72.85, 19.05], [72.8, 19.05], [72.8, 19.0]]]}}, {"type": "Feature", "properties": {"risk_level": 2, "rain_mm_3h": 42.1}, "geometry": {"type": "Polygon", "coordinates": [[[72.85, 19.0], [72.89999999999999, 19.0], [72.89999999999999, 19.05], [72.85, 19.05], [72.85, 19.0]]]}}, {"type": "Feature", "properties": {"risk_level": 3, "rain_mm_3h": 51.4}, "geometry": {"type": "Polygon", "coordinates": [[[72.9, 19.0], [72.95, 19.0], [72.95, 19.05], [72.9, 19.05], [72.9, 19.0]]]}}, {"type": "Feature", "properties": {"risk_level": 2, "rain_mm_3h": 44.4}, "geometry": {"type": "Polygon", "coordinates": [[[72.95, 19.0], [73.0, 19.0], [73.0, 19.05], [72.95, 19.05], [72.95, 19.0]]]}}, {"type": "Feature", "properties": {"risk_level": 2, "rain_mm_3h": 27.1}, "geometry": {"type": "Polygon", "coordinates": [[[73.0, 19.0], [73.05, 19.0], [73.05, 19.05], [73.0, 19.05], [73.0, 19.0]]]}}, {"type": "Feature", "properties": {"risk_level": 1, "rain_mm_3h": 12.6}, "geometry": {"type": "Polygon", "coordinates": [[[72.75, 19.05], [72.8, 19.05], [72.8, 19.1], [72.75, 19.1], [72.75, 19.05]]]}}, {"type": "Feature", "properties": {"risk_level": 2, "rain_mm_3h": 30.7}, "geometry": {"type": "Polygon", "coordinates": [[[72.8, 19.05], [72.85, 19.05], [72.85, 19.1], [72.8, 19.1], [72.8, 19.05]]]}}, {"type": "Feature", "properties": {"risk_level": 3, "rain_mm_3h": 53.1}, "geometry": {"type": "Polygon", "coordinates": [[[72.85, 19.05], [72.89999999999999, 19.05], [72.89999999999999, 19.1], [72.85, 19.1], [72.85, 19.05]]]}}, {"type": "Feature", "properties": {"risk_level": 3, "rain_mm_3h": 64.8}, "geometry": {"type": "Polygon", "coordinates": [[[72.9, 19.05], [72.95, 19.05], [72.95, 19.1], [72.9, 19.1], [72.9, 19.05]]]}}, {"type": "Feature", "properties": {"risk_level": 3, "rain_mm_3h": 55.9}, "geometry": {"type": "Polygon", "coordinates": [[[72.95, 19.05], [73.0, 19.05], [73.0, 19.1], [72.95, 19.1], [72.95, 19.05]]]}}, {"type": "Feature", "properties": {"risk_level": 2, "rain_mm_3h": 34.1}, "geometry": {"type": "Polygon", "coordinates": [[[73.0, 19.05], [73.05, 19.05], [73.05, 19.1], [73.0, 19.1], [73.0, 19.05]]]}}, {"type": "Feature", "properties": {"risk_level": 1, "rain_mm_3h": 13.6}, "geometry": {"type": "Polygon", "coordinates": [[[72.75, 19.1], [72.8, 19.1], [72.8, 19.150000000000002], [72.75, 19.150000000000002], [72.75, 19.1]]]}}, {"type": "Feature", "properties": {"risk_level": 2, "rain_mm_3h": 33.2}, "geometry": {"type": "Polygon", "coordinates": [[[72.8, 19.1], [72.85, 19.1], [72.85, 19.150000000000002], [72.8, 19.150000000000002], [72.8, 19.1]]]}}, {"type": "Feature", "properties": {"risk_level": 3, "rain_mm_3h": 57.4}, "geometry": {"type": "Polygon", "coordinates": [[[72.85, 19.1], [72.89999999999999, 19.1], [72.89999999999999, 19.150000000000002], [72.85, 19.150000000000002], [72.85, 19.1]]]}}, {"type": "Feature", "properties": {"risk_level": 3, "rain_mm_3h": 70.0}, "geometry": {"type": "Polygon", "coordinates": [[[72.9, 19.1], [72.95, 19.1], [72.95, 19.150000000000002], [72.9, 19.150000000000002], [72.9, 19.1]]]}}, {"type": "Feature", "properties": {"risk_level": 3, "rain_mm_3h": 60.4}, "geometry": {"type": "Polygon", "coordinates": [[[72.95, 19.1], [73.0, 19.1], [73.0, 19.150000000000002], [72.95, 19.150000000000002], [72.95, 19.1]]]}}, {"type": "Feature", "properties": {"risk_level": 2, "rain_mm_3h": 36.8}, "geometry": {"type": "Polygon", "coordinates": [[[73.0, 19.1], [73.05, 19.1], [73.05, 19.150000000000002], [73.0, 19.150000000000002], [73.0, 19.1]]]}}, {"type": "Feature", "properties": {"risk_level": 1, "rain_mm_3h": 12.6}, "geometry": {"type": "Polygon", "coordinates": [[[72.75, 19.15], [72.8, 19.15], [72.8, 19.2], [72.75, 19.2], [72.75, 19.15]]]}}, {"type": "Feature", "properties": {"risk_level": 2, "rain_mm_3h": 30.7}, "geometry": {"type": "Polygon", "coordinates": [[[72.8, 19.15], [72.85, 19.15], [72.85, 19.2], [72.8, 19.2], [72.8, 19.15]]]}}, {"type": "Feature", "properties": {"risk_level": 3, "rain_mm_3h": 53.1}, "geometry": {"type": "Polygon", "coordinates": [[[72.85, 19.15], [72.89999999999999, 19.15], [72.89999999999999, 19.2], [72.85, 19.2], [72.85, 19.15]]]}}, {"type": "Feature", "properties": {"risk_level": 3, "rain_mm_3h": 64.8}, "geometry": {"type": "Polygon", "coordinates": [[[72.9, 19.15], [72.95, 19.15], [72.95, 19.2], [72.9, 19.2], [72.9, 19.15]]]}}, {"type": "Feature", "properties": {"risk_level": 3, "rain_mm_3h": 55.9}, "geometry": {"type": "Polygon", "coordinates": [[[72.95, 19.15], [73.0, 19.15], [73.0, 19.2], [72.95, 19.2], [72.95, 19.15]]]}}, {"type": "Feature", "properties": {"risk_level": 2, "rain_mm_3h": 34.1}, "geometry": {"type": "Polygon", "coordinates": [[[73.0, 19.15], [73.05, 19.15], [73.05, 19.2], [73.0, 19.2], [73.0, 19.15]]]}}, {"type": "Feature", "properties": {"risk_level": 1, "rain_mm_3h": 10.0}, "geometry": {"type": "Polygon", "coordinates": [[[72.75, 19.2], [72.8, 19.2], [72.8, 19.25], [72.75, 19.25], [72.75, 19.2]]]}}, {"type": "Feature", "properties": {"risk_level": 1, "rain_mm_3h": 24.4}, "geometry": {"type": "Polygon", "coordinates": [[[72.8, 19.2], [72.85, 19.2], [72.85, 19.25], [72.8, 19.25], [72.8, 19.2]]]}}, {"type": "Feature", "properties": {"risk_level": 2, "rain_mm_3h": 42.1}, "geometry": {"type": "Polygon", "coordinates": [[[72.85, 19.2], [72.89999999999999, 19.2], [72.89999999999999, 19.25], [72.85, 19.25], [72.85, 19.2]]]}}, {"type": "Feature", "properties": {"risk_level": 3, "rain_mm_3h": 51.4}, "geometry": {"type": "Polygon", "coordinates": [[[72.9, 19.2], [72.95, 19.2], [72.95, 19.25], [72.9, 19.25], [72.9, 19.2]]]}}, {"type": "Feature", "properties": {"risk_level": 2, "rain_mm_3h": 44.4}, "geometry": {"type": "Polygon", "coordinates": [[[72.95, 19.2], [73.0, 19.2], [73.0, 19.25], [72.95, 19.25], [72.95, 19.2]]]}}, {"type": "Feature", "properties": {"risk_level": 2, "rain_mm_3h": 27.1}, "geometry": {"type": "Polygon", "coordinates": [[[73.0, 19.2], [73.05, 19.2], [73.05, 19.25], [73.0, 19.25], [73.0, 19.2]]]}}, {"type": "Feature", "properties": {"risk_level": 0, "rain_mm_3h": 6.8}, "geometry": {"type": "Polygon", "coordinates": [[[72.75, 19.25], [72.8, 19.25], [72.8, 19.3], [72.75, 19.3], [72.75, 19.25]]]}}, {"type": "Feature", "properties": {"risk_level": 1, "rain_mm_3h": 16.6}, "geometry": {"type": "Polygon", "coordinates": [[[72.8, 19.25], [72.85, 19.25], [72.85, 19.3], [72.8, 19.3], [72.8, 19.25]]]}}, {"type": "Feature", "properties": {"risk_level": 2, "rain_mm_3h": 28.6}, "geometry": {"type": "Polygon", "coordinates": [[[72.85, 19.25], [72.89999999999999, 19.25], [72.89999999999999, 19.3], [72.85, 19.3], [72.85, 19.25]]]}}, {"type": "Feature", "properties": {"risk_level": 2, "rain_mm_3h": 35.0}, "geometry": {"type": "Polygon", "coordinates": [[[72.9, 19.25], [72.95, 19.25], [72.95, 19.3], [72.9, 19.3], [72.9, 19.25]]]}}, {"type": "Feature", "properties": {"risk_level": 2, "rain_mm_3h": 30.2}, "geometry": {"type": "Polygon", "coordinates": [[[72.95, 19.25], [73.0, 19.25], [73.0, 19.3], [72.95, 19.3], [72.95, 19.25]]]}}, {"type": "Feature", "properties": {"risk_level": 1, "rain_mm_3h": 18.4}, "geometry": {"type": "Polygon", "coordinates": [[[73.0, 19.25], [73.05, 19.25], [73.05, 19.3], [73.0, 19.3], [73.0, 19.25]]]}}]}