{"type": "FeatureCollection", "hour": 20, "mock": true, "features": [{"type": "Feature", "properties": {"risk_level": 0, "rain_mm_3h": 1.0}, "geometry": {"type": "Polygon", "coordinates": [[[72.75, 18.9], [72.8, 18.9], [72.8, 18.95], [72.75, 18.95], [72.75, 18.9]]]}}, {"type": "Feature", "properties": {"risk_level": 0, "rain_mm_3h": 3.6}, "geometry": {"type": "Polygon", "coordinates": [[[72.8, 18.9], [72.85, 18.9], [72.85, 18.95], [72.8, 18.95], [72.8, 18.9]]]}}, {"type": "Feature", "properties": {"risk_level": 0, "rain_mm_3h": 6.6}, "geometry": {"type": "Polygon", "coordinates": [[[72.85, 18.9], [72.89999999999999, 18.9], [72.89999999999999, 18.95], [72.85, 18.95], [72.85, 18.9]]]}}, {"type": "Feature", "properties": {"risk_level": 0, "rain_mm_3h": 6.0}, "geometry": {"type": "Polygon", "coordinates": [[[72.9, 18.9], [72.95, 18.9], [72.95, 18.95], [72.9, 18.95], [72.9, 18.9]]]}}, {"type": "Feature", "properties": {"risk_level": 0, "rain_mm_3h": 2.7}, "geometry": {"type": "Polygon", "coordinates": [[[72.95, 18.9], [73.0, 18.9], [73.0, 18.95], [72.95, 18.95], [72.95, 18.9]]]}}, {"type": "Feature", "properties": {"risk_level": 0, "rain_mm_3h": 0.6}, "geometry": {"type": "Polygon", "coordinates": [[[73.0, 18.9], [73.05, 18.9], [73.05, 18.95], [73.0, 18.95], [73.0, 18.9]]]}}, {"type": "Feature", "properties": {"risk_level": 0, "rain_mm_3h": 2.1}, "geometry": {"type": "Polygon", "coordinates": [[[72.75, 18.95], [72.8, 18.95], [72.8, 19.0], [72.75, 19.0], [72.75, 18.95]]]}}, {"type": "Feature", "properties": {"risk_level": 0, "rain_mm_3h": 7.7}, "geometry": {"type": "Polygon", "coordinates": [[[72.8, 18.95], [72.85, 18.95], [72.85, 19.0], [72.8, 19.0], [72.8, 18.95]]]}}, {"type": "Feature", "properties": {"risk_level": 1, "rain_mm_3h": 14.0}, "geometry": {"type": "Polygon", "coordinates": [[[72.85, 18.95], [72.89999999999999, 18.95], [72.89999999999999, 19.0], [72.85, 19.0], [72.85, 18.95]]]}}, {"type": "Feature", "properties": {"risk_level": 1, "rain_mm_3h": 12.8}, "geometry": {"type": "Polygon", "coordinates": [[[72.9, 18.95], [72.95, 18.95], [72.95, 19.0], [72.9, 19.0], [72.9, 18.95]]]}}, {"type": "Feature", "properties": {"risk_level": 0, "rain_mm_3h": 5.8}, "geometry": {"type": "Polygon", "coordinates": [[[72.95, 18.95], [73.0, 18.95], [73.0, 19.0], [72.95, 19.0], [72.95, 18.95]]]}}, {"type": "Feature", "properties": {"risk_level": 0, "rain_mm_3h": 1.3}, "geometry": {"type": "Polygon", "coordinates": [[[73.0, 18.95], [73.05, 18.95], [73.05, 19.0], [73.0, 19.0], [73.0, 18.95]]]}}, {"type": "Feature", "properties": {"risk_level": 0, "rain_mm_3h": 3.4}, "geometry": {"type": "Polygon", "coordinates": [[[72.75, 19.0], [72.8, 19.0], [72.8, 19.05], [72.75, 19.05], [72.75, 19.0]]]}}, {"type": "Feature", "properties": {"risk_level": 1, "rain_mm_3h": 12.3}, "geometry": {"type": "Polygon", "coordinates": [[[72.8, 19.0], [72.85, 19.0], [72.85, 19.05], [72.8, 19.05], [72.8, 19.0]]]}}, {"type": "Feature", "properties": {"risk_level": 1, "rain_mm_3h": 22.3}, "geometry": {"type": "Polygon", "coordinates": [[[72.85, 19.0], [72.89999999999999, 19.0], [72.89999999999999, 19.05], [72.85, 19.05], [72.85, 19.0]]]}}, {"type": "Feature", "properties": {"risk_level": 1, "rain_mm_3h": 20.3}, "geometry": {"type": "Polygon", "coordinates": [[[72.9, 19.0], [72.95, 19.0], [72.95, 19.05], [72.9, 19.05], [72.9, 19.0]]]}}, {"type": "Feature", "properties": {"risk_level": 0, "rain_mm_3h": 9.2}, "geometry": {"type": "Polygon", "coordinates": [[[72.95, 19.0], [73.0, 19.0], [73.0, 19.05], [72.95, 19.05], [72.95, 19.0]]]}}, {"type": "Feature", "properties": {"risk_level": 0, "rain_mm_3h": 2.1}, "geometry": {"type": "Polygon", "coordinates": [[[73.0, 19.0], [73.05, 19.0], [73.05, 19.05], [73.0, 19.05], [73.0, 19.0]]]}}, {"type": "Feature", "properties": {"risk_level": 0, "rain_mm_3h": 4.0}, "geometry": {"type": "Polygon", "coordinates": [[[72.75, 19.05], [72.8, 19.05], [72.8, 19.1], [72.75, 19.1], [72.75, 19.05]]]}}, {"type": "Feature", "properties": {"risk_level": 1, "rain_mm_3h": 14.6}, "geometry": {"type": "Polygon", "coordinates": [[[72.8, 19.05], [72.85, 19.05], [72.85, 19.1], [72.8, 19.1], [72.8, 19.05]]]}}, {"type": "Feature", "properties": {"risk_level": 2, "rain_mm_3h": 26.4}, "geometry": {"type": "Polygon", "coordinates": [[[72.85, 19.05], [72.89999999999999, 19.05], [72.89999999999999, 19.1], [72.85, 19.1], [72.85, 19.05]]]}}, {"type": "Feature", "properties": {"risk_level": 1, "rain_mm_3h": 24.0}, "geometry": {"type": "Polygon", "coordinates": [[[72.9, 19.05], [72.95, 19.05], [72.95, 19.1], [72.9, 19.1], [72.9, 19.05]]]}}, {"type": "Feature", "properties": {"risk_level": 1, "rain_mm_3h": 10.9}, "geometry": {"type": "Polygon", "coordinates": [[[72.95, 19.05], [73.0, 19.05], [73.0, 19.1], [72.95, 19.1], [72.95, 19.05]]]}}, {"type": "Feature", "properties": {"risk_level": 0, "rain_mm_3h": 2.5}, "geometry": {"type": "Polygon", "coordinates": [[[73.0, 19.05], [73.05, 19.05], [73.05, 19.1], [73.0, 19.1], [73.0, 19.05]]]}}, {"type": "Feature", "properties": {"risk_level": 0, "rain_mm_3h": 3.5}, "geometry": {"type": "Polygon", "coordinates": [[[72.75, 19.1], [72.8, 19.1], [72.8, 19.150000000000002], [72.75, 19.150000000000002], [72.75, 19.1]]]}}, {"type": "Feature", "properties": {"risk_level": 1, "rain_mm_3h": 12.8}, "geometry": {"type": "Polygon", "coordinates": [[[72.8, 19.1], [72.85, 19.1], [72.85, 19.150000000000002], [72.8, 19.150000000000002], [72.8, 19.1]]]}}, {"type": "Feature", "properties": {"risk_level": 1, "rain_mm_3h": 23.2}, "geometry": {"type": "Polygon", "coordinates": [[[72.85, 19.1], [72.89999999999999, 19.1], [72.89999999999999, 19.150000000000002], [72.85, 19.150000000000002], [72.85, 19.1]]]}}, {"type": "Feature", "properties": {"risk_level": 1, "rain_mm_3h": 21.1}, "geometry": {"type": "Polygon", "coordinates": [[[72.9, 19.1], [72.95, 19.1], [72.95, 19.150000000000002], [72.9, 19.150000000000002], [72.9, 19.1]]]}}, {"type": "Feature", "properties": {"risk_level": 0, "rain_mm_3h": 9.6}, "geometry": {"type": "Polygon", "coordinates": [[[72.95, 19.1], [73.0, 19.1], [73.0, 19.150000000000002], [72.95, 19.150000000000002], [72.95, 19.1]]]}}, {"type": "Feature", "properties": {"risk_level": 0, "rain_mm_3h": 2.2}, "geometry": {"type": "Polygon", "coordinates": [[[73.0, 19.1], [73.05, 19.1], [73.05, 19.150000000000002], [73.0, 19.150000000000002], [73.0, 19.1]]]}}, {"type": "Feature", "properties": {"risk_level": 0, "rain_mm_3h": 2.3}, "geometry": {"type": "Polygon", "coordinates": [[[72.75, 19.15], [72.8, 19.15], [72.8, 19.2], [72.75, 19.2], [72.75, 19.15]]]}}, {"type": "Feature", "properties": {"risk_level": 0, "rain_mm_3h": 8.4}, "geometry": {"type": "Polygon", "coordinates": [[[72.8, 19.15], [72.85, 19.15], [72.85, 19.2], [72.8, 19.2], [72.8, 19.15]]]}}, {"type": "Feature", "properties": {"risk_level": 1, "rain_mm_3h": 15.2}, "geometry": {"type": "Polygon", "coordinates": [[[72.85, 19.15], [72.89999999999999, 19.15], [72.89999999999999, 19.2], [72.85, 19.2], [72.85, 19.15]]]}}, {"type": "Feature", "properties": {"risk_level": 1, "rain_mm_3h": 13.8}, "geometry": {"type": "Polygon", "coordinates": [[[72.9, 19.15], [72.95, 19.15], [72.95, 19.2], [72.9, 19.2], [72.9, 19.15]]]}}, {"type": "Feature", "properties": {"risk_level": 0, "rain_mm_3h": 6.3}, "geometry": {"type": "Polygon", "coordinates": [[[72.95, 19.15], [73.0, 19.15], [73.0, 19.2], [72.95, 19.2], [72.95, 19.15]]]}}, {"type": "Feature", "properties": {"risk_level": 0, "rain_mm_3h": 1.4}, "geometry": {"type": "Polygon", "coordinates": [[[73.0, 19.15], [73.05, 19.15], [73.05, 19.2], [73.0, 19.2], [73.0, 19.15]]]}}, {"type": "Feature", "properties": {"risk_level": 0, "rain_mm_3h": 1.1}, "geometry": {"type": "Polygon", "coordinates": [[[72.75, 19.2], [72.8, 19.2], [72.8, 19.25], [72.75, 19.25], [72.75, 19.2]]]}}, {"type": "Feature", "properties": {"risk_level": 0, "rain_mm_3h": 4.1}, "geometry": {"type": "Polygon", "coordinates": [[[72.8, 19.2], [72.85, 19.2], [72.85, 19.25], [72.8, 19.25], [72.8, 19.2]]]}}, {"type": "Feature", "properties": {"risk_level": 0, "rain_mm_3h": 7.4}, "geometry": {"type": "Polygon", "coordinates": [[[72.85, 19.2], [72.89999999999999, 19.2], [72.89999999999999, 19.25], [72.85, 19.25], [72.85, 19.2]]]}}, {"type": "Feature", "properties": {"risk_level": 0, "rain_mm_3h": 6.7}, "geometry": {"type": "Polygon", "coordinates": [[[72.9, 19.2], [72.95, 19.2], [72.95, 19.25], [72.9, 19.25], [72.9, 19.2]]]}}, {"type": "Feature", "properties": {"risk_level": 0, "rain_mm_3h": 3.1}, "geometry": {"type": "Polygon", "coordinates": [[[72.95, 19.2], [73.0, 19.2], [73.0, 19.25], [72.95, 19.25], [72.95, 19.2]]]}}, {"type": "Feature", "properties": {"risk_level": 0, "rain_mm_3h": 0.7}, "geometry": {"type": "Polygon", "coordinates": [[[73.0, 19.2], [73.05, 19.2], [73.05, 19.25], [73.0, 19.25], [73.0, 19.2]]]}}, {"type": "Feature", "properties": {"risk_level": 0, "rain_mm_3h": 0.4}, "geometry": {"type": "Polygon", "coordinates": [[[72.75, 19.25], [72.8, 19.25], [72.8, 19.3], [72.75, 19.3], [72.75, 19.25]]]}}, {"type": "Feature", "properties": {"risk_level": 0, "rain_mm_3h": 1.5}, "geometry": {"type": "Polygon", "coordinates": [[[72.8, 19.25], [72.85, 19.25], [72.85, 19.3], [72.8, 19.3], [72.8, 19.25]]]}}, {"type": "Feature", "properties": {"risk_level": 0, "rain_mm_3h": 2.7}, "geometry": {"type": "Polygon", "coordinates": [[[72.85, 19.25], [72.89999999999999, 19.25], [72.89999999999999, 19.3], [72.85, 19.3], [72.85, 19.25]]]}}, {"type": "Feature", "properties": {"risk_level": 0, "rain_mm_3h": 2.4}, "geometry": {"type": "Polygon", "coordinates": [[[72.9, 19.25], [72.95, 19.25], [72.95, 19.3], [72.9, 19.3], [72.9, 19.25]]]}}, {"type": "Feature", "properties": {"risk_level": 0, "rain_mm_3h": 1.1}, "geometry": {"type": "Polygon", "coordinates": [[[72.95, 19.25], [73.0, 19.25], [73.0, 19.3], [72.95, 19.3], [72.95, 19.25]]]}}, {"type": "Feature", "properties": {"risk_level": 0, "rain_mm_3h": 0.3}, "geometry": {"type": "Polygon", "coordinates": [[[73.0, 19.25], [73.05, 19.25], [73.05, 19.3], [73.0, 19.3], [73.0, 19.25]]]}}]}