{"type": "FeatureCollection", "hour": 24, "mock": true, "features": [{"type": "Feature", "properties": {"risk_level": 0, "rain_mm_3h": 1.6}, "geometry": {"type": "Polygon", "coordinates": [[[72.75, 18.9], [72.8, 18.9], [72.8, 18.95], [72.75, 18.95], [72.75, 18.9]]]}}, {"type": "Feature", "properties": {"risk_level": 0, "rain_mm_3h": 5.7}, "geometry": {"type": "Polygon", "coordinates": [[[72.8, 18.9], [72.85, 18.9], [72.85, 18.95], [72.8, 18.95], [72.8, 18.9]]]}}, {"type": "Feature", "properties": {"risk_level": 1, "rain_mm_3h": 10.5}, "geometry": {"type": "Polygon", "coordinates": [[[72.85, 18.9], [72.89999999999999, 18.9], [72.89999999999999, 18.95], [72.85, 18.95], [72.85, 18.9]]]}}, {"type": "Feature", "properties": {"risk_level": 0, "rain_mm_3h": 9.6}, "geometry": {"type": "Polygon", "coordinates": [[[72.9, 18.9], [72.95, 18.9], [72.95, 18.95], [72.9, 18.95], [72.9, 18.9]]]}}, {"type": "Feature", "properties": {"risk_level": 0, "rain_mm_3h": 4.4}, "geometry": {"type": "Polygon", "coordinates": [[[72.95, 18.9], [73.0, 18.9], [73.0, 18.95], [72.95, 18.95], [72.95, 18.9]]]}}, {"type": "Feature", "properties": {"risk_level": 0, "rain_mm_3h": 1.0}, "geometry": {"type": "Polygon", "coordinates": [[[73.0, 18.9], [73.05, 18.9], [73.05, 18.95], [73.0, 18.95], [73.0, 18.9]]]}}, {"type": "Feature", "properties": {"risk_level": 0, "rain_mm_3h": 3.7}, "geometry": {"type": "Polygon", "coordinates": [[[72.75, 18.95], [72.8, 18.95], [72.8, 19.0], [72.75, 19.0], [72.75, 18.95]]]}}, {"type": "Feature", "properties": {"risk_level": 1, "rain_mm_3h": 13.4}, "geometry": {"type": "Polygon", "coordinates": [[[72.8, 18.95], [72.85, 18.95], [72.85, 19.0], [72.8, 19.0], [72.8, 18.95]]]}}, {"type": "Feature", "properties": {"risk_level": 1, "rain_mm_3h": 24.7}, "geometry": {"type": "Polygon", "coordinates": [[[72.85, 18.95], [72.89999999999999, 18.95], [72.89999999999999, 19.0], [72.85, 19.0], [72.85, 18.95]]]}}, {"type": "Feature", "properties": {"risk_level": 1, "rain_mm_3h": 22.7}, "geometry": {"type": "Polygon", "coordinates": [[[72.9, 18.95], [72.95, 18.95], [72.95, 19.0], [72.9, 19.0], [72.9, 18.95]]]}}, {"type": "Feature", "properties": {"risk_level": 1, "rain_mm_3h": 10.5}, "geometry": {"type": "Polygon", "coordinates": [[[72.95, 18.95], [73.0, 18.95], [73.0, 19.0], [72.95, 19.0], [72.95, 18.95]]]}}, {"type": "Feature", "properties": {"risk_level": 0, "rain_mm_3h": 2.4}, "geometry": {"type": "Polygon", "coordinates": [[[73.0, 18.95], [73.05, 18.95], [73.05, 19.0], [73.0, 19.0], [73.0, 18.95]]]}}, {"type": "Feature", "properties": {"risk_level": 0, "rain_mm_3h": 6.4}, "geometry": {"type": "Polygon", "coordinates": [[[72.75, 19.0], [72.8, 19.0], [72.8, 19.05], [72.75, 19.05], [72.75, 19.0]]]}}, {"type": "Feature", "properties": {"risk_level": 1, "rain_mm_3h": 23.6}, "geometry": {"type": "Polygon", "coordinates": [[[72.8, 19.0], [72.85, 19.0], [72.85, 19.05], [72.8, 19.05], [72.8, 19.0]]]}}, {"type": "Feature", "properties": {"risk_level": 2, "rain_mm_3h": 43.4}, "geometry": {"type": "Polygon", "coordinates": [[[72.85, 19.0], [72.89999999999999, 19.0], [72.89999999999999, 19.05], [72.85, 19.05], [72.85, 19.0]]]}}, {"type": "Feature", "properties": {"risk_level": 2, "rain_mm_3h": 39.9}, "geometry": {"type": "Polygon", "coordinates": [[[72.9, 19.0], [72.95, 19.0], [72.95, 19.05], [72.9, 19.05], [72.9, 19.0]]]}}, {"type": "Feature", "properties": {"risk_level": 1, "rain_mm_3h": 18.4}, "geometry": {"type": "Polygon", "coordinates": [[[72.95, 19.0], [73.0, 19.0], [73.0, 19.05], [72.95, 19.05], [72.95, 19.0]]]}}, {"type": "Feature", "properties": {"risk_level": 0, "rain_mm_3h": 4.2}, "geometry": {"type": "Polygon", "coordinates": [[[73.0, 19.0], [73.05, 19.0], [73.05, 19.05], [73.0, 19.05], [73.0, 19.0]]]}}, {"type": "Feature", "properties": {"risk_level": 0, "rain_mm_3h": 8.4}, "geometry": {"type": "Polygon", "coordinates": [[[72.75, 19.05], [72.8, 19.05], [72.8, 19.1], [72.75, 19.1], [72.75, 19.05]]]}}, {"type": "Feature", "properties": {"risk_level": 2, "rain_mm_3h": 30.8}, "geometry": {"type": "Polygon", "coordinates": [[[72.8, 19.05], [72.85, 19.05], [72.85, 19.1], [72.8, 19.1], [72.8, 19.05]]]}}, {"type": "Feature", "properties": {"risk_level": 3, "rain_mm_3h": 56.6}, "geometry": {"type": "Polygon", "coordinates": [[[72.85, 19.05], [72.89999999999999, 19.05], [72.89999999999999, 19.1], [72.85, 19.1], [72.85, 19.05]]]}}, {"type": "Feature", "properties": {"risk_level": 3, "rain_mm_3h": 52.1}, "geometry": {"type": "Polygon", "coordinates": [[[72.9, 19.05], [72.95, 19.05], [72.95, 19.1], [72.9, 19.1], [72.9, 19.05]]]}}, {"type": "Feature", "properties": {"risk_level": 1, "rain_mm_3h": 24.0}, "geometry": {"type": "Polygon", "coordinates": [[[72.95, 19.05], [73.0, 19.05], [73.0, 19.1], [72.95, 19.1], [72.95, 19.05]]]}}, {"type": "Feature", "properties": {"risk_level": 0, "rain_mm_3h": 5.5}, "geometry": {"type": "Polygon", "coordinates": [[[73.0, 19.05], [73.05, 19.05], [73.05, 19.1], [73.0, 19.1], [73.0, 19.05]]]}}, {"type": "Feature", "properties": {"risk_level": 0, "rain_mm_3h": 8.1}, "geometry": {"type": "Polygon", "coordinates": [[[72.75, 19.1], [72.8, 19.1], [72.8, 19.150000000000002], [72.75, 19.150000000000002], [72.75, 19.1]]]}}, {"type": "Feature", "properties": {"risk_level": 2, "rain_mm_3h": 29.9}, "geometry": {"type": "Polygon", "coordinates": [[[72.8, 19.1], [72.85, 19.1], [72.85, 19.150000000000002], [72.8, 19.150000000000002], [72.8, 19.1]]]}}, {"type": "Feature", "properties": {"risk_level": 3, "rain_mm_3h": 54.9}, "geometry": {"type": "Polygon", "coordinates": [[[72.85, 19.1], [72.89999999999999, 19.1], [72.89999999999999, 19.150000000000002], [72.85, 19.150000000000002], [72.85, 19.1]]]}}, {"type": "Feature", "properties": {"risk_level": 3, "rain_mm_3h": 50.6}, "geometry": {"type": "Polygon", "coordinates": [[[72.9, 19.1], [72.95, 19.1], [72.95, 19.150000000000002], [72.9, 19.150000000000002], [72.9, 19.1]]]}}, {"type": "Feature", "properties": {"risk_level": 1, "rain_mm_3h": 23.3}, "geometry": {"type": "Polygon", "coordinates": [[[72.95, 19.1], [73.0, 19.1], [73.0, 19.150000000000002], [72.95, 19.150000000000002], [72.95, 19.1]]]}}, {"type": "Feature", "properties": {"risk_level": 0, "rain_mm_3h": 5.4}, "geometry": {"type": "Polygon", "coordinates": [[[73.0, 19.1], [73.05, 19.1], [73.05, 19.150000000000002], [73.0, 19.150000000000002], [73.0, 19.1]]]}}, {"type": "Feature", "properties": {"risk_level": 0, "rain_mm_3h": 5.9}, "geometry": {"type": "Polygon", "coordinates": [[[72.75, 19.15], [72.8, 19.15], [72.8, 19.2], [72.75, 19.2], [72.75, 19.15]]]}}, {"type": "Feature", "properties": {"risk_level": 1, "rain_mm_3h": 21.6}, "geometry": {"type": "Polygon", "coordinates": [[[72.8, 19.15], [72.85, 19.15], [72.85, 19.2], [72.8, 19.2], [72.8, 19.15]]]}}, {"type": "Feature", "properties": {"risk_level": 2, "rain_mm_3h": 39.7}, "geometry": {"type": "Polygon", "coordinates": [[[72.85, 19.15], [72.89999999999999, 19.15], [72.89999999999999, 19.2], [72.85, 19.2], [72.85, 19.15]]]}}, {"type": "Feature", "properties": {"risk_level": 2, "rain_mm_3h": 36.5}, "geometry": {"type": "Polygon", "coordinates": [[[72.9, 19.15], [72.95, 19.15], [72.95, 19.2], [72.9, 19.2], [72.9, 19.15]]]}}, {"type": "Feature", "properties": {"risk_level": 1, "rain_mm_3h": 16.8}, "geometry": {"type": "Polygon", "coordinates": [[[72.95, 19.15], [73.0, 19.15], [73.0, 19.2], [72.95, 19.2], [72.95, 19.15]]]}}, {"type": "Feature", "properties": {"risk_level": 0, "rain_mm_3h": 3.9}, "geometry": {"type": "Polygon", "coordinates": [[[73.0, 19.15], [73.05, 19.15], [73.05, 19.2], [73.0, 19.2], [73.0, 19.15]]]}}, {"type": "Feature", "properties": {"risk_level": 0, "rain_mm_3h": 3.2}, "geometry": {"type": "Polygon", "coordinates": [[[72.75, 19.2], [72.8, 19.2], [72.8, 19.25], [72.75, 19.25], [72.75, 19.2]]]}}, {"type": "Feature", "properties": {"risk_level": 1, "rain_mm_3h": 11.6}, "geometry": {"type": "Polygon", "coordinates": [[[72.8, 19.2], [72.85, 19.2], [72.85, 19.25], [72.8, 19.25], [72.8, 19.2]]]}}, {"type": "Feature", "properties": {"risk_level": 1, "rain_mm_3h": 21.3}, "geometry": {"type": "Polygon", "coordinates": [[[72.85, 19.2], [72.89999999999999, 19.2], [72.89999999999999, 19.25], [72.85, 19.25], [72.85, 19.2]]]}}, {"type": "Feature", "properties": {"risk_level": 1, "rain_mm_3h": 19.6}, "geometry": {"type": "Polygon", "coordinates": [[[72.9, 19.2], [72.95, 19.2], [72.95, 19.25], [72.9, 19.25], [72.9, 19.2]]]}}, {"type": "Feature", "properties": {"risk_level": 0, "rain_mm_3h": 9.0}, "geometry": {"type": "Polygon", "coordinates": [[[72.95, 19.2], [73.0, 19.2], [73.0, 19.25], [72.95, 19.25], [72.95, 19.2]]]}}, {"type": "Feature", "properties": {"risk_level": 0, "rain_mm_3h": 2.1}, "geometry": {"type": "Polygon", "coordinates": [[[73.0, 19.2], [73.05, 19.2], [73.05, 19.25], [73.0, 19.25], [73.0, 19.2]]]}}, {"type": "Feature", "properties": {"risk_level": 0, "rain_mm_3h": 1.3}, "geometry": {"type": "Polygon", "coordinates": [[[72.75, 19.25], [72.8, 19.25], [72.8, 19.3], [72.75, 19.3], [72.75, 19.25]]]}}, {"type": "Feature", "properties": {"risk_level": 0, "rain_mm_3h": 4.6}, "geometry": {"type": "Polygon", "coordinates": [[[72.8, 19.25], [72.85, 19.25], [72.85, 19.3], [72.8, 19.3], [72.8, 19.25]]]}}, {"type": "Feature", "properties": {"risk_level": 0, "rain_mm_3h": 8.5}, "geometry": {"type": "Polygon", "coordinates": [[[72.85, 19.25], [72.89999999999999, 19.25], [72.89999999999999, 19.3], [72.85, 19.3], [72.85, 19.25]]]}}, {"type": "Feature", "properties": {"risk_level": 0, "rain_mm_3h": 7.8}, "geometry": {"type": "Polygon", "coordinates": [[[72.9, 19.25], [72.95, 19.25], [72.95, 19.3], [72.9, 19.3], [72.9, 19.25]]]}}, {"type": "Feature", "properties": {"risk_level": 0, "rain_mm_3h": 3.6}, "geometry": {"type": "Polygon", "coordinates": [[[72.95, 19.25], [73.0, 19.25], [73.0, 19.3], [72.95, 19.3], [72.95, 19.25]]]}}, {"type": "Feature", "properties": {"risk_level": 0, "rain_mm_3h": 0.8}, "geometry": {"type": "Polygon", "coordinates": [[[73.0, 19.25], [73.05, 19.25], [73.05, 19.3], [73.0, 19.3], [73.0, 19.25]]]}}]}