{"type": "FeatureCollection", "hour": 28, "mock": true, "features": [{"type": "Feature", "properties": {"risk_level": 0, "rain_mm_3h": 1.7}, "geometry": {"type": "Polygon", "coordinates": [[[72.75, 18.9], [72.8, 18.9], [72.8, 18.95], [72.75, 18.95], [72.75, 18.9]]]}}, {"type": "Feature", "properties": {"risk_level": 0, "rain_mm_3h": 6.0}, "geometry": {"type": "Polygon", "coordinates": [[[72.8, 18.9], [72.85, 18.9], [72.85, 18.95], [72.8, 18.95], [72.8, 18.9]]]}}, {"type": "Feature", "properties": {"risk_level": 1, "rain_mm_3h": 11.0}, "geometry": {"type": "Polygon", "coordinates": [[[72.85, 18.9], [72.89999999999999, 18.9], [72.89999999999999, 18.95], [72.85, 18.95], [72.85, 18.9]]]}}, {"type": "Feature", "properties": {"risk_level": 1, "rain_mm_3h": 10.0}, "geometry": {"type": "Polygon", "coordinates": [[[72.9, 18.9], [72.95, 18.9], [72.95, 18.95], [72.9, 18.95], [72.9, 18.9]]]}}, {"type": "Feature", "properties": {"risk_level": 0, "rain_mm_3h": 4.6}, "geometry": {"type": "Polygon", "coordinates": [[[72.95, 18.9], [73.0, 18.9], [73.0, 18.95], [72.95, 18.95], [72.95, 18.9]]]}}, {"type": "Feature", "properties": {"risk_level": 0, "rain_mm_3h": 1.0}, "geometry": {"type": "Polygon", "coordinates": [[[73.0, 18.9], [73.05, 18.9], [73.05, 18.95], [73.0, 18.95], [73.0, 18.9]]]}}, {"type": "Feature", "properties": {"risk_level": 0, "rain_mm_3h": 4.3}, "geometry": {"type": "Polygon", "coordinates": [[[72.75, 18.95], [72.8, 18.95], [72.8, 19.0], [72.75, 19.0], [72.75, 18.95]]]}}, {"type": "Feature", "properties": {"risk_level": 1, "rain_mm_3h": 15.7}, "geometry": {"type": "Polygon", "coordinates": [[[72.8, 18.95], [72.85, 18.95], [72.85, 19.0], [72.8, 19.0], [72.8, 18.95]]]}}, {"type": "Feature", "properties": {"risk_level": 2, "rain_mm_3h": 28.6}, "geometry": {"type": "Polygon", "coordinates": [[[72.85, 18.95], [72.89999999999999, 18.95], [72.89999999999999, 19.0], [72.85, 19.0], [72.85, 18.95]]]}}, {"type": "Feature", "properties": {"risk_level": 2, "rain_mm_3h": 26.1}, "geometry": {"type": "Polygon", "coordinates": [[[72.9, 18.95], [72.95, 18.95], [72.95, 19.0], [72.9, 19.0], [72.9, 18.95]]]}}, {"type": "Feature", "properties": {"risk_level": 1, "rain_mm_3h": 11.9}, "geometry": {"type": "Polygon", "coordinates": [[[72.95, 18.95], [73.0, 18.95], [73.0, 19.0], [72.95, 19.0], [72.95, 18.95]]]}}, {"type": "Feature", "properties": {"risk_level": 0, "rain_mm_3h": 2.7}, "geometry": {"type": "Polygon", "coordinates": [[[73.0, 18.95], [73.05, 18.95], [73.05, 19.0], [73.0, 19.0], [73.0, 18.95]]]}}, {"type": "Feature", "properties": {"risk_level": 0, "rain_mm_3h": 8.4}, "geometry": {"type": "Polygon", "coordinates": [[[72.75, 19.0], [72.8, 19.0], [72.8, 19.05], [72.75, 19.05], [72.75, 19.0]]]}}, {"type": "Feature", "properties": {"risk_level": 2, "rain_mm_3h": 30.4}, "geometry": {"type": "Polygon", "coordinates": [[[72.8, 19.0], [72.85, 19.0], [72.85, 19.05], [72.8, 19.05], [72.8, 19.0]]]}}, {"type": "Feature", "properties": {"risk_level": 3, "rain_mm_3h": 55.4}, "geometry": {"type": "Polygon", "coordinates": [[[72.85, 19.0], [72.89999999999999, 19.0], [72.89999999999999, 19.05], [72.85, 19.05], [72.85, 19.0]]]}}, {"type": "Feature", "properties": {"risk_level": 3, "rain_mm_3h": 50.4}, "geometry": {"type": "Polygon", "coordinates": [[[72.9, 19.0], [72.95, 19.0], [72.95, 19.05], [72.9, 19.05], [72.9, 19.0]]]}}, {"type": "Feature", "properties": {"risk_level": 1, "rain_mm_3h": 23.0}, "geometry": {"type": "Polygon", "coordinates": [[[72.95, 19.0], [73.0, 19.0], [73.0, 19.05], [72.95, 19.05], [72.95, 19.0]]]}}, {"type": "Feature", "properties": {"risk_level": 0, "rain_mm_3h": 5.3}, "geometry": {"type": "Polygon", "coordinates": [[[73.0, 19.0], [73.05, 19.0], [73.05, 19.05], [73.0, 19.05], [73.0, 19.0]]]}}, {"type": "Feature", "properties": {"risk_level": 1, "rain_mm_3h": 12.0}, "geometry": {"type": "Polygon", "coordinates": [[[72.75, 19.05], [72.8, 19.05], [72.8, 19.1], [72.75, 19.1], [72.75, 19.05]]]}}, {"type": "Feature", "properties": {"risk_level": 2, "rain_mm_3h": 43.8}, "geometry": {"type": "Polygon", "coordinates": [[[72.8, 19.05], [72.85, 19.05], [72.85, 19.1], [72.8, 19.1], [72.8, 19.05]]]}}, {"type": "Feature", "properties": {"risk_level": 3, "rain_mm_3h": 79.7}, "geometry": {"type": "Polygon", "coordinates": [[[72.85, 19.05], [72.89999999999999, 19.05], [72.89999999999999, 19.1], [72.85, 19.1], [72.85, 19.05]]]}}, {"type": "Feature", "properties": {"risk_level": 3, "rain_mm_3h": 72.7}, "geometry": {"type": "Polygon", "coordinates": [[[72.9, 19.05], [72.95, 19.05], [72.95, 19.1], [72.9, 19.1], [72.9, 19.05]]]}}, {"type": "Feature", "properties": {"risk_level": 2, "rain_mm_3h": 33.1}, "geometry": {"type": "Polygon", "coordinates": [[[72.95, 19.05], [73.0, 19.05], [73.0, 19.1], [72.95, 19.1], [72.95, 19.05]]]}}, {"type": "Feature", "properties": {"risk_level": 0, "rain_mm_3h": 7.6}, "geometry": {"type": "Polygon", "coordinates": [[[73.0, 19.05], [73.05, 19.05], [73.05, 19.1], [73.0, 19.1], [73.0, 19.05]]]}}, {"type": "Feature", "properties": {"risk_level": 1, "rain_mm_3h": 12.9}, "geometry": {"type": "Polygon", "coordinates": [[[72.75, 19.1], [72.8, 19.1], [72.8, 19.150000000000002], [72.75, 19.150000000000002], [72.75, 19.1]]]}}, {"type": "Feature", "properties": {"risk_level": 2, "rain_mm_3h": 46.9}, "geometry": {"type": "Polygon", "coordinates": [[[72.8, 19.1], [72.85, 19.1], [72.85, 19.150000000000002], [72.8, 19.150000000000002], [72.8, 19.1]]]}}, {"type": "Feature", "properties": {"risk_level": 3, "rain_mm_3h": 85.4}, "geometry": {"type": "Polygon", "coordinates": [[[72.85, 19.1], [72.89999999999999, 19.1], [72.89999999999999, 19.150000000000002], [72.85, 19.150000000000002], [72.85, 19.1]]]}}, {"type": "Feature", "properties": {"risk_level": 3, "rain_mm_3h": 77.9}, "geometry": {"type": "Polygon", "coordinates": [[[72.9, 19.1], [72.95, 19.1], [72.95, 19.150000000000002], [72.9, 19.150000000000002], [72.9, 19.1]]]}}, {"type": "Feature", "properties": {"risk_level": 2, "rain_mm_3h": 35.5}, "geometry": {"type": "Polygon", "coordinates": [[[72.95, 19.1], [73.0, 19.1], [73.0, 19.150000000000002], [72.95, 19.150000000000002], [72.95, 19.1]]]}}, {"type": "Feature", "properties": {"risk_level": 0, "rain_mm_3h": 8.1}, "geometry": {"type": "Polygon", "coordinates": [[[73.0, 19.1], [73.05, 19.1], [73.05, 19.150000000000002], [73.0, 19.150000000000002], [73.0, 19.1]]]}}, {"type": "Feature", "properties": {"risk_level": 1, "rain_mm_3h": 10.3}, "geometry": {"type": "Polygon", "coordinates": [[[72.75, 19.15], [72.8, 19.15], [72.8, 19.2], [72.75, 19.2], [72.75, 19.15]]]}}, {"type": "Feature", "properties": {"risk_level": 2, "rain_mm_3h": 37.4}, "geometry": {"type": "Polygon", "coordinates": [[[72.8, 19.15], [72.85, 19.15], [72.85, 19.2], [72.8, 19.2], [72.8, 19.15]]]}}, {"type": "Feature", "properties": {"risk_level": 3, "rain_mm_3h": 68.1}, "geometry": {"type": "Polygon", "coordinates": [[[72.85, 19.15], [72.89999999999999, 19.15], [72.89999999999999, 19.2], [72.85, 19.2], [72.85, 19.15]]]}}, {"type": "Feature", "properties": {"risk_level": 3, "rain_mm_3h": 62.1}, "geometry": {"type": "Polygon", "coordinates": [[[72.9, 19.15], [72.95, 19.15], [72.95, 19.2], [72.9, 19.2], [72.9, 19.15]]]}}, {"type": "Feature", "properties": {"risk_level": 2, "rain_mm_3h": 28.3}, "geometry": {"type": "Polygon", "coordinates": [[[72.95, 19.15], [73.0, 19.15], [73.0, 19.2], [72.95, 19.2], [72.95, 19.15]]]}}, {"type": "Feature", "properties": {"risk_level": 0, "rain_mm_3h": 6.5}, "geometry": {"type": "Polygon", "coordinates": [[[73.0, 19.15], [73.05, 19.15], [73.05, 19.2], [73.0, 19.2], [73.0, 19.15]]]}}, {"type": "Feature", "properties": {"risk_level": 0, "rain_mm_3h": 6.1}, "geometry": {"type": "Polygon", "coordinates": [[[72.75, 19.2], [72.8, 19.2], [72.8, 19.25], [72.75, 19.25], [72.75, 19.2]]]}}, {"type": "Feature", "properties": {"risk_level": 1, "rain_mm_3h": 22.2}, "geometry": {"type": "Polygon", "coordinates": [[[72.8, 19.2], [72.85, 19.2], [72.85, 19.25], [72.8, 19.25], [72.8, 19.2]]]}}, {"type": "Feature", "properties": {"risk_level": 2, "rain_mm_3h": 40.4}, "geometry": {"type": "Polygon", "coordinates": [[[72.85, 19.2], [72.89999999999999, 19.2], [72.89999999999999, 19.25], [72.85, 19.25], [72.85, 19.2]]]}}, {"type": "Feature", "properties": {"risk_level": 2, "rain_mm_3h": 36.8}, "geometry": {"type": "Polygon", "coordinates": [[[72.9, 19.2], [72.95, 19.2], [72.95, 19.25], [72.9, 19.25], [72.9, 19.2]]]}}, {"type": "Feature", "properties": {"risk_level": 1, "rain_mm_3h": 16.8}, "geometry": {"type": "Polygon", "coordinates": [[[72.95, 19.2], [73.0, 19.2], [73.0, 19.25], [72.95, 19.25], [72.95, 19.2]]]}}, {"type": "Feature", "properties": {"risk_level": 0, "rain_mm_3h": 3.8}, "geometry": {"type": "Polygon", "coordinates": [[[73.0, 19.2], [73.05, 19.2], [73.05, 19.25], [73.0, 19.25], [73.0, 19.2]]]}}, {"type": "Feature", "properties": {"risk_level": 0, "rain_mm_3h": 2.7}, "geometry": {"type": "Polygon", "coordinates": [[[72.75, 19.25], [72.8, 19.25], [72.8, 19.3], [72.75, 19.3], [72.75, 19.25]]]}}, {"type": "Feature", "properties": {"risk_level": 0, "rain_mm_3h": 9.8}, "geometry": {"type": "Polygon", "coordinates": [[[72.8, 19.25], [72.85, 19.25], [72.85, 19.3], [72.8, 19.3], [72.8, 19.25]]]}}, {"type": "Feature", "properties": {"risk_level": 1, "rain_mm_3h": 17.8}, "geometry": {"type": "Polygon", "coordinates": [[[72.85, 19.25], [72.89999999999999, 19.25], [72.89999999999999, 19.3], [72.85, 19.3], [72.85, 19.25]]]}}, {"type": "Feature", "properties": {"risk_level": 1, "rain_mm_3h": 16.2}, "geometry": {"type": "Polygon", "coordinates": [[[72.9, 19.25], [72.95, 19.25], [72.95, 19.3], [72.9, 19.3], [72.9, 19.25]]]}}, {"type": "Feature", "properties": {"risk_level": 0, "rain_mm_3h": 7.4}, "geometry": {"type": "Polygon", "coordinates": [[[72.95, 19.25], [73.0, 19.25], [73.0, 19.3], [72.95, 19.3], [72.95, 19.25]]]}}, {"type": "Feature", "properties": {"risk_level": 0, "rain_mm_3h": 1.7}, "geometry": {"type": "Polygon", "coordinates": [[[73.0, 19.25], [73.05, 19.25], [73.05, 19.3], [73.0, 19.3], [73.0, 19.25]]]}}]}